start=new Date('2022-01-29T00:00:00.000Z').valueOf();
sats=[{"ECCENTRICITY":"0.00016970","MEAN_MOTION_DOT":"-0.00000685","PERIOD":"95.593","MEAN_MOTION_DDOT":"0.0000000000000","INCLINATION":"53.0549","SITE":"AFETR","CENTER_NAME":"EARTH","GP_ID":"194844729","OBJECT_NAME":"STARLINK-2077","CLASSIFICATION_TYPE":"U","PERIAPSIS":"546.084","EPOCH":"2022-01-28T12:55:20.757216","EPHEMERIS_TYPE":"0","COUNTRY_CODE":"US","RCS_SIZE":"LARGE","TLE_LINE1":"1 47363U 21005Q   22028.53843469 -.00000685  00000-0 -27086-4 0  9995","MEAN_ANOMALY":"295.8149","RA_OF_ASC_NODE":"320.5436","LAUNCH_DATE":"2021-01-20","BSTAR":"-0.00002708600000","SEMIMAJOR_AXIS":"6925.394","APOAPSIS":"548.434","DECAY_DATE":null,"REV_AT_EPOCH":"5678","NORAD_CAT_ID":"47363","REF_FRAME":"TEME","OBJECT_TYPE":"PAYLOAD","TIME_SYSTEM":"UTC","FILE":"3286235","ARG_OF_PERICENTER":"64.3015","MEAN_ELEMENT_THEORY":"SGP4","TLE_LINE2":"2 47363  53.0549 320.5436 0001697  64.3015 295.8149 15.06385168 56783","MEAN_MOTION":"15.06385168","ELEMENT_SET_NO":"999","OBJECT_ID":"2021-005Q"},{"EPHEMERIS_TYPE":"0","COUNTRY_CODE":"US","RCS_SIZE":"LARGE","TLE_LINE1":"1 47365U 21005S   22028.87986516 -.00095550  00000-0 -58385-3 0  9995","MEAN_ANOMALY":"70.3958","RA_OF_ASC_NODE":"166.9083","LAUNCH_DATE":"2021-01-20","SEMIMAJOR_AXIS":"6717.789","BSTAR":"-0.00058385000000","ECCENTRICITY":"0.00090060","MEAN_MOTION_DOT":"-0.00095550","PERIOD":"91.327","MEAN_MOTION_DDOT":"0.0000000000000","INCLINATION":"53.0409","CENTER_NAME":"EARTH","SITE":"AFETR","GP_ID":"194843477","CLASSIFICATION_TYPE":"U","OBJECT_NAME":"STARLINK-2080","PERIAPSIS":"333.604","EPOCH":"2022-01-28T21:07:00.349824","MEAN_MOTION":"15.76751406","ELEMENT_SET_NO":"999","OBJECT_ID":"2021-005S","APOAPSIS":"345.704","DECAY_DATE":null,"REV_AT_EPOCH":"5896","NORAD_CAT_ID":"47365","REF_FRAME":"TEME","OBJECT_TYPE":"PAYLOAD","TIME_SYSTEM":"UTC","ARG_OF_PERICENTER":"289.6089","FILE":"3286235","MEAN_ELEMENT_THEORY":"SGP4","TLE_LINE2":"2 47365  53.0409 166.9083 0009006 289.6089  70.3958 15.76751406 58960"},{"DECAY_DATE":null,"REV_AT_EPOCH":"5682","NORAD_CAT_ID":"47366","REF_FRAME":"TEME","APOAPSIS":"548.558","FILE":"3286235","ARG_OF_PERICENTER":"58.3469","MEAN_ELEMENT_THEORY":"SGP4","TLE_LINE2":"2 47366  53.0552 319.2503 0001878  58.3469 301.7703 15.06385646 56826","OBJECT_TYPE":"PAYLOAD","TIME_SYSTEM":"UTC","OBJECT_ID":"2021-005T","MEAN_MOTION":"15.06385646","ELEMENT_SET_NO":"999","MEAN_MOTION_DDOT":"0.0000000000000","INCLINATION":"53.0552","ECCENTRICITY":"0.00018780","MEAN_MOTION_DOT":"-0.00001178","PERIOD":"95.593","GP_ID":"194843727","CLASSIFICATION_TYPE":"U","OBJECT_NAME":"STARLINK-2081","PERIAPSIS":"545.957","EPOCH":"2022-01-28T19:54:40.329216","SITE":"AFETR","CENTER_NAME":"EARTH","COUNTRY_CODE":"US","RCS_SIZE":"LARGE","EPHEMERIS_TYPE":"0","RA_OF_ASC_NODE":"319.2503","SEMIMAJOR_AXIS":"6925.393","LAUNCH_DATE":"2021-01-20","BSTAR":"-0.00006019100000","TLE_LINE1":"1 47366U 21005T   22028.82963344 -.00001178  00000-0 -60191-4 0  9997","MEAN_ANOMALY":"301.7703"},{"MEAN_MOTION":"15.06407391","ELEMENT_SET_NO":"999","OBJECT_ID":"2021-005U","TIME_SYSTEM":"UTC","OBJECT_TYPE":"PAYLOAD","TLE_LINE2":"2 47367  53.0559 319.4367 0001887  63.1336 296.9845 15.06407391 56825","MEAN_ELEMENT_THEORY":"SGP4","ARG_OF_PERICENTER":"63.1336","FILE":"3286235","APOAPSIS":"548.498","NORAD_CAT_ID":"47367","REF_FRAME":"TEME","DECAY_DATE":null,"REV_AT_EPOCH":"5682","TLE_LINE1":"1 47367U 21005U   22028.78906927  .00000933  00000-0  81505-4 0  9995","MEAN_ANOMALY":"296.9845","RA_OF_ASC_NODE":"319.4367","SEMIMAJOR_AXIS":"6925.326","LAUNCH_DATE":"2021-01-20","BSTAR":"0.00008150500000","EPHEMERIS_TYPE":"0","RCS_SIZE":"LARGE","COUNTRY_CODE":"US","SITE":"AFETR","CENTER_NAME":"EARTH","CLASSIFICATION_TYPE":"U","OBJECT_NAME":"STARLINK-2082","EPOCH":"2022-01-28T18:56:15.584928","PERIAPSIS":"545.884","GP_ID":"194844479","PERIOD":"95.592","MEAN_MOTION_DOT":"0.00000933","ECCENTRICITY":"0.00018870","MEAN_MOTION_DDOT":"0.0000000000000","INCLINATION":"53.0559"},{"COUNTRY_CODE":"US","RCS_SIZE":"LARGE","EPHEMERIS_TYPE":"0","LAUNCH_DATE":"2021-01-20","SEMIMAJOR_AXIS":"6925.361","BSTAR":"0.00002567300000","RA_OF_ASC_NODE":"320.6456","MEAN_ANOMALY":"296.1286","TLE_LINE1":"1 47368U 21005V   22028.51632317  .00000101  00000-0  25673-4 0  9997","INCLINATION":"53.0551","MEAN_MOTION_DDOT":"0.0000000000000","ECCENTRICITY":"0.00017550","MEAN_MOTION_DOT":"0.00000101","PERIOD":"95.592","GP_ID":"194845229","EPOCH":"2022-01-28T12:23:30.321888","PERIAPSIS":"546.011","OBJECT_NAME":"STARLINK-2084","CLASSIFICATION_TYPE":"U","CENTER_NAME":"EARTH","SITE":"AFETR","OBJECT_ID":"2021-005V","ELEMENT_SET_NO":"999","MEAN_MOTION":"15.06395888","REV_AT_EPOCH":"5678","DECAY_DATE":null,"REF_FRAME":"TEME","NORAD_CAT_ID":"47368","APOAPSIS":"548.442","FILE":"3286235","ARG_OF_PERICENTER":"63.9884","TLE_LINE2":"2 47368  53.0551 320.6456 0001755  63.9884 296.1286 15.06395888 56784","MEAN_ELEMENT_THEORY":"SGP4","OBJECT_TYPE":"PAYLOAD","TIME_SYSTEM":"UTC"},{"GP_ID":"194843977","PERIAPSIS":"545.991","EPOCH":"2022-01-28T17:18:04.142592","OBJECT_NAME":"STARLINK-2085","CLASSIFICATION_TYPE":"U","SITE":"AFETR","CENTER_NAME":"EARTH","INCLINATION":"53.0553","MEAN_MOTION_DDOT":"0.0000000000000","MEAN_MOTION_DOT":"0.00000632","ECCENTRICITY":"0.00017610","PERIOD":"95.592","SEMIMAJOR_AXIS":"6925.345","LAUNCH_DATE":"2021-01-20","BSTAR":"0.00006132800000","RA_OF_ASC_NODE":"299.7409","MEAN_ANOMALY":"297.1912","TLE_LINE1":"1 47369U 21005W   22028.72088128  .00000632  00000-0  61328-4 0  9992","COUNTRY_CODE":"US","RCS_SIZE":"LARGE","EPHEMERIS_TYPE":"0","ARG_OF_PERICENTER":"62.9256","FILE":"3286235","TLE_LINE2":"2 47369  53.0553 299.7409 0001761  62.9256 297.1912 15.06401129 57098","MEAN_ELEMENT_THEORY":"SGP4","OBJECT_TYPE":"PAYLOAD","TIME_SYSTEM":"UTC","REV_AT_EPOCH":"5709","DECAY_DATE":null,"REF_FRAME":"TEME","NORAD_CAT_ID":"47369","APOAPSIS":"548.430","OBJECT_ID":"2021-005W","ELEMENT_SET_NO":"999","MEAN_MOTION":"15.06401129"},{"NORAD_CAT_ID":"47370","REF_FRAME":"TEME","DECAY_DATE":null,"REV_AT_EPOCH":"5740","APOAPSIS":"548.399","TLE_LINE2":"2 47370  53.0541 279.0350 0001693  56.4428 303.6722 15.06395618 57408","MEAN_ELEMENT_THEORY":"SGP4","FILE":"3286235","ARG_OF_PERICENTER":"56.4428","TIME_SYSTEM":"UTC","OBJECT_TYPE":"PAYLOAD","OBJECT_ID":"2021-005X","MEAN_MOTION":"15.06395618","ELEMENT_SET_NO":"999","MEAN_MOTION_DDOT":"0.0000000000000","INCLINATION":"53.0541","PERIOD":"95.592","ECCENTRICITY":"0.00016930","MEAN_MOTION_DOT":"-0.00000381","OBJECT_NAME":"STARLINK-2086","CLASSIFICATION_TYPE":"U","PERIAPSIS":"546.055","EPOCH":"2022-01-28T21:03:39.843072","GP_ID":"194844227","SITE":"AFETR","CENTER_NAME":"EARTH","RCS_SIZE":"LARGE","COUNTRY_CODE":"US","EPHEMERIS_TYPE":"0","RA_OF_ASC_NODE":"279.0350","BSTAR":"-0.00000670290000","LAUNCH_DATE":"2021-01-20","SEMIMAJOR_AXIS":"6925.362","TLE_LINE1":"1 47370U 21005X   22028.87754448 -.00000381  00000-0 -67029-5 0  9993","MEAN_ANOMALY":"303.6722"},{"TIME_SYSTEM":"UTC","OBJECT_TYPE":"PAYLOAD","MEAN_ELEMENT_THEORY":"SGP4","TLE_LINE2":"2 47371  53.0559 319.3914 0001624  65.7963 294.3196 15.06398488 56827","ARG_OF_PERICENTER":"65.7963","FILE":"3286235","APOAPSIS":"548.343","REF_FRAME":"TEME","NORAD_CAT_ID":"47371","REV_AT_EPOCH":"5682","DECAY_DATE":null,"ELEMENT_SET_NO":"999","MEAN_MOTION":"15.06398488","OBJECT_ID":"2021-005Y","CENTER_NAME":"EARTH","SITE":"AFETR","EPOCH":"2022-01-28T19:06:54.066240","PERIAPSIS":"546.094","OBJECT_NAME":"STARLINK-2088","CLASSIFICATION_TYPE":"U","GP_ID":"194844979","PERIOD":"95.592","ECCENTRICITY":"0.00016240","MEAN_MOTION_DOT":"-0.00000563","INCLINATION":"53.0559","MEAN_MOTION_DDOT":"0.0000000000000","MEAN_ANOMALY":"294.3196","TLE_LINE1":"1 47371U 21005Y   22028.79645910 -.00000563  00000-0 -18876-4 0  9995","SEMIMAJOR_AXIS":"6925.353","LAUNCH_DATE":"2021-01-20","BSTAR":"-0.00001887600000","RA_OF_ASC_NODE":"319.3914","EPHEMERIS_TYPE":"0","RCS_SIZE":"LARGE","COUNTRY_CODE":"US"},{"CENTER_NAME":"EARTH","SITE":"AFETR","GP_ID":"194844730","CLASSIFICATION_TYPE":"U","OBJECT_NAME":"STARLINK-2089","EPOCH":"2022-01-28T11:53:36.591360","PERIAPSIS":"546.096","ECCENTRICITY":"0.00016700","MEAN_MOTION_DOT":"-0.00002114","PERIOD":"95.593","MEAN_MOTION_DDOT":"0.0000000000000","INCLINATION":"53.0554","TLE_LINE1":"1 47372U 21005Z   22028.49556240 -.00002114  00000-0 -12308-3 0  9997","MEAN_ANOMALY":"299.0778","RA_OF_ASC_NODE":"315.7302","BSTAR":"-0.00012308000000","LAUNCH_DATE":"2021-01-20","SEMIMAJOR_AXIS":"6925.388","EPHEMERIS_TYPE":"0","COUNTRY_CODE":"US","RCS_SIZE":"LARGE","OBJECT_TYPE":"PAYLOAD","TIME_SYSTEM":"UTC","ARG_OF_PERICENTER":"61.0379","FILE":"3286235","TLE_LINE2":"2 47372  53.0554 315.7302 0001670  61.0379 299.0778 15.06387290 56844","MEAN_ELEMENT_THEORY":"SGP4","APOAPSIS":"548.409","DECAY_DATE":null,"REV_AT_EPOCH":"5684","NORAD_CAT_ID":"47372","REF_FRAME":"TEME","MEAN_MOTION":"15.06387290","ELEMENT_SET_NO":"999","OBJECT_ID":"2021-005Z"},{"MEAN_ELEMENT_THEORY":"SGP4","TLE_LINE2":"2 47373  53.0553 319.3979 0002001  59.4898 300.6288 15.06390988 56821","ARG_OF_PERICENTER":"59.4898","FILE":"3286235","TIME_SYSTEM":"UTC","OBJECT_TYPE":"PAYLOAD","NORAD_CAT_ID":"47373","REF_FRAME":"TEME","DECAY_DATE":null,"REV_AT_EPOCH":"5682","APOAPSIS":"548.627","OBJECT_ID":"2021-005AA","MEAN_MOTION":"15.06390988","ELEMENT_SET_NO":"999","OBJECT_NAME":"STARLINK-2092","CLASSIFICATION_TYPE":"U","EPOCH":"2022-01-28T19:01:35.948352","PERIAPSIS":"545.855","GP_ID":"194843478","SITE":"AFETR","CENTER_NAME":"EARTH","MEAN_MOTION_DDOT":"0.0000000000000","INCLINATION":"53.0553","PERIOD":"95.593","ECCENTRICITY":"0.00020010","MEAN_MOTION_DOT":"-0.00002062","RA_OF_ASC_NODE":"319.3979","BSTAR":"-0.00011955000000","LAUNCH_DATE":"2021-01-20","SEMIMAJOR_AXIS":"6925.376","TLE_LINE1":"1 47373U 21005AA  22028.79277718 -.00002062  00000-0 -11955-3 0  9990","MEAN_ANOMALY":"300.6288","RCS_SIZE":"LARGE","COUNTRY_CODE":"US","EPHEMERIS_TYPE":"0"}];
